[{"OBJECT_NAME":"STARLINK-30243","OBJECT_ID":"2023-122S","EPOCH":"2023-09-15T14:00:01.000224","MEAN_MOTION":15.29997733,"ECCENTRICITY":0.0001039,"INCLINATION":43.0003,"RA_OF_ASC_NODE":339.0407,"ARG_OF_PERICENTER":259.976,"MEAN_ANOMALY":316.0401,"EPHEMERIS_TYPE":0,"CLASSIFICATION_TYPE":"U","NORAD_CAT_ID":57648,"ELEMENT_SET_NO":999,"REV_AT_EPOCH":593,"BSTAR":-0.0787,"MEAN_MOTION_DOT":-0.02098661,"MEAN_MOTION_DDOT":0},{"OBJECT_NAME":"STARLINK-30293","OBJECT_ID":"2023-122T","EPOCH":"2023-09-15T14:00:01.000224","MEAN_MOTION":15.28451477,"ECCENTRICITY":9.16e-5,"INCLINATION":43.0003,"RA_OF_ASC_NODE":339.0909,"ARG_OF_PERICENTER":250.7106,"MEAN_ANOMALY":304.1997,"EPHEMERIS_TYPE":0,"CLASSIFICATION_TYPE":"U","NORAD_CAT_ID":57649,"ELEMENT_SET_NO":999,"REV_AT_EPOCH":593,"BSTAR":-0.08216,"MEAN_MOTION_DOT":-0.0208913,"MEAN_MOTION_DDOT":0},{"OBJECT_NAME":"STARLINK-30299","OBJECT_ID":"2023-122U","EPOCH":"2023-09-15T14:00:01.000224","MEAN_MOTION":15.27561842,"ECCENTRICITY":9.45e-5,"INCLINATION":43.0006,"RA_OF_ASC_NODE":339.1313,"ARG_OF_PERICENTER":234.5306,"MEAN_ANOMALY":303.9552,"EPHEMERIS_TYPE":0,"CLASSIFICATION_TYPE":"U","NORAD_CAT_ID":57650,"ELEMENT_SET_NO":999,"REV_AT_EPOCH":592,"BSTAR":-0.084134,"MEAN_MOTION_DOT":-0.02082197,"MEAN_MOTION_DDOT":0},{"OBJECT_NAME":"STARLINK-30294","OBJECT_ID":"2023-122V","EPOCH":"2023-09-15T14:00:01.000224","MEAN_MOTION":15.35433267,"ECCENTRICITY":0.0001422,"INCLINATION":43.0001,"RA_OF_ASC_NODE":338.9305,"ARG_OF_PERICENTER":277.8482,"MEAN_ANOMALY":343.8477,"EPHEMERIS_TYPE":0,"CLASSIFICATION_TYPE":"U","NORAD_CAT_ID":57651,"ELEMENT_SET_NO":999,"REV_AT_EPOCH":588,"BSTAR":-0.065887,"MEAN_MOTION_DOT":-0.02089319,"MEAN_MOTION_DDOT":0},{"OBJECT_NAME":"STARLINK-30276","OBJECT_ID":"2023-122W","EPOCH":"2023-09-15T14:00:01.000224","MEAN_MOTION":15.28906998,"ECCENTRICITY":5.97e-5,"INCLINATION":43.0005,"RA_OF_ASC_NODE":339.0717,"ARG_OF_PERICENTER":252.3976,"MEAN_ANOMALY":310.3765,"EPHEMERIS_TYPE":0,"CLASSIFICATION_TYPE":"U","NORAD_CAT_ID":57652,"ELEMENT_SET_NO":999,"REV_AT_EPOCH":592,"BSTAR":-0.081169,"MEAN_MOTION_DOT":-0.0209271,"MEAN_MOTION_DDOT":0},{"OBJECT_NAME":"STARLINK-30289","OBJECT_ID":"2023-122X","EPOCH":"2023-09-15T14:00:01.000224","MEAN_MOTION":15.44631027,"ECCENTRICITY":8.94e-5,"INCLINATION":43.0003,"RA_OF_ASC_NODE":338.332,"ARG_OF_PERICENTER":256.2653,"MEAN_ANOMALY":251.638,"EPHEMERIS_TYPE":0,"CLASSIFICATION_TYPE":"U","NORAD_CAT_ID":57653,"ELEMENT_SET_NO":999,"REV_AT_EPOCH":593,"BSTAR":-0.062453,"MEAN_MOTION_DOT":-0.02618131,"MEAN_MOTION_DDOT":0},{"OBJECT_NAME":"GAOFEN-12 04","OBJECT_ID":"2023-123A","EPOCH":"2023-09-15T17:36:14.555520","MEAN_MOTION":14.80514782,"ECCENTRICITY":0.0002838,"INCLINATION":97.904,"RA_OF_ASC_NODE":174.904,"ARG_OF_PERICENTER":68.5033,"MEAN_ANOMALY":291.6482,"EPHEMERIS_TYPE":0,"CLASSIFICATION_TYPE":"U","NORAD_CAT_ID":57654,"ELEMENT_SET_NO":999,"REV_AT_EPOCH":385,"BSTAR":0.00027962,"MEAN_MOTION_DOT":2.089e-5,"MEAN_MOTION_DDOT":0},{"OBJECT_NAME":"CZ-4C R\/B","OBJECT_ID":"2023-123B","EPOCH":"2023-09-15T13:06:27.894816","MEAN_MOTION":15.11114838,"ECCENTRICITY":0.0098462,"INCLINATION":97.8847,"RA_OF_ASC_NODE":175.7343,"ARG_OF_PERICENTER":329.0178,"MEAN_ANOMALY":30.5265,"EPHEMERIS_TYPE":0,"CLASSIFICATION_TYPE":"U","NORAD_CAT_ID":57655,"ELEMENT_SET_NO":999,"REV_AT_EPOCH":389,"BSTAR":0.00035804,"MEAN_MOTION_DOT":6.663e-5,"MEAN_MOTION_DDOT":0},{"OBJECT_NAME":"STARLINK-30267","OBJECT_ID":"2023-124A","EPOCH":"2023-09-15T14:00:01.000224","MEAN_MOTION":15.43839317,"ECCENTRICITY":8.12e-5,"INCLINATION":53.054,"RA_OF_ASC_NODE":84.438,"ARG_OF_PERICENTER":119.4781,"MEAN_ANOMALY":60.1313,"EPHEMERIS_TYPE":0,"CLASSIFICATION_TYPE":"U","NORAD_CAT_ID":57663,"ELEMENT_SET_NO":999,"REV_AT_EPOCH":492,"BSTAR":0.00080487,"MEAN_MOTION_DOT":0.00036822,"MEAN_MOTION_DDOT":0},{"OBJECT_NAME":"STARLINK-30302","OBJECT_ID":"2023-124B","EPOCH":"2023-09-15T14:00:01.000224","MEAN_MOTION":15.43021532,"ECCENTRICITY":0.0001241,"INCLINATION":53.0541,"RA_OF_ASC_NODE":84.4364,"ARG_OF_PERICENTER":65.219,"MEAN_ANOMALY":115.2554,"EPHEMERIS_TYPE":0,"CLASSIFICATION_TYPE":"U","NORAD_CAT_ID":57664,"ELEMENT_SET_NO":999,"REV_AT_EPOCH":506,"BSTAR":-0.053152,"MEAN_MOTION_DOT":-0.0210864,"MEAN_MOTION_DDOT":0},{"OBJECT_NAME":"STARLINK-30298","OBJECT_ID":"2023-124C","EPOCH":"2023-09-15T14:00:01.000224","MEAN_MOTION":15.42453676,"ECCENTRICITY":0.0001882,"INCLINATION":53.054,"RA_OF_ASC_NODE":84.4387,"ARG_OF_PERICENTER":93.7577,"MEAN_ANOMALY":85.6008,"EPHEMERIS_TYPE":0,"CLASSIFICATION_TYPE":"U","NORAD_CAT_ID":57665,"ELEMENT_SET_NO":999,"REV_AT_EPOCH":507,"BSTAR":-0.054415,"MEAN_MOTION_DOT":-0.0211691,"MEAN_MOTION_DDOT":0},{"OBJECT_NAME":"STARLINK-30301","OBJECT_ID":"2023-124D","EPOCH":"2023-09-14T03:33:37.955808","MEAN_MOTION":15.83849094,"ECCENTRICITY":7.01e-5,"INCLINATION":53.0492,"RA_OF_ASC_NODE":89.2954,"ARG_OF_PERICENTER":1.6869,"MEAN_ANOMALY":358.4155,"EPHEMERIS_TYPE":0,"CLASSIFICATION_TYPE":"U","NORAD_CAT_ID":57666,"ELEMENT_SET_NO":999,"REV_AT_EPOCH":483,"BSTAR":0.0012263,"MEAN_MOTION_DOT":0.00286863,"MEAN_MOTION_DDOT":0},{"OBJECT_NAME":"STARLINK-30275","OBJECT_ID":"2023-124E","EPOCH":"2023-09-15T14:00:01.000224","MEAN_MOTION":15.43584894,"ECCENTRICITY":0.0001263,"INCLINATION":53.054,"RA_OF_ASC_NODE":84.4344,"ARG_OF_PERICENTER":121.7764,"MEAN_ANOMALY":60.1346,"EPHEMERIS_TYPE":0,"CLASSIFICATION_TYPE":"U","NORAD_CAT_ID":57667,"ELEMENT_SET_NO":999,"REV_AT_EPOCH":471,"BSTAR":-0.05324,"MEAN_MOTION_DOT":-0.0214787,"MEAN_MOTION_DDOT":0},{"OBJECT_NAME":"STARLINK-30278","OBJECT_ID":"2023-124F","EPOCH":"2023-09-15T14:00:01.000224","MEAN_MOTION":15.44126873,"ECCENTRICITY":0.0001237,"INCLINATION":53.0541,"RA_OF_ASC_NODE":84.4322,"ARG_OF_PERICENTER":127.4271,"MEAN_ANOMALY":55.0905,"EPHEMERIS_TYPE":0,"CLASSIFICATION_TYPE":"U","NORAD_CAT_ID":57668,"ELEMENT_SET_NO":999,"REV_AT_EPOCH":506,"BSTAR":-0.050575,"MEAN_MOTION_DOT":-0.0208639,"MEAN_MOTION_DDOT":0},{"OBJECT_NAME":"STARLINK-30271","OBJECT_ID":"2023-124G","EPOCH":"2023-09-15T14:00:01.000224","MEAN_MOTION":15.44110337,"ECCENTRICITY":0.0003742,"INCLINATION":53.0539,"RA_OF_ASC_NODE":84.4303,"ARG_OF_PERICENTER":139.0145,"MEAN_ANOMALY":44.6699,"EPHEMERIS_TYPE":0,"CLASSIFICATION_TYPE":"U","NORAD_CAT_ID":57669,"ELEMENT_SET_NO":999,"REV_AT_EPOCH":506,"BSTAR":-0.016072,"MEAN_MOTION_DOT":-0.0069341,"MEAN_MOTION_DDOT":0},{"OBJECT_NAME":"STARLINK-30322","OBJECT_ID":"2023-124H","EPOCH":"2023-09-15T14:00:01.000224","MEAN_MOTION":15.44286061,"ECCENTRICITY":0.0002092,"INCLINATION":53.0541,"RA_OF_ASC_NODE":84.4318,"ARG_OF_PERICENTER":112.6858,"MEAN_ANOMALY":70.3895,"EPHEMERIS_TYPE":0,"CLASSIFICATION_TYPE":"U","NORAD_CAT_ID":57670,"ELEMENT_SET_NO":999,"REV_AT_EPOCH":470,"BSTAR":-0.036098,"MEAN_MOTION_DOT":-0.01524291,"MEAN_MOTION_DDOT":0},{"OBJECT_NAME":"STARLINK-30296","OBJECT_ID":"2023-124J","EPOCH":"2023-09-15T14:00:01.000224","MEAN_MOTION":15.51517782,"ECCENTRICITY":0.0001504,"INCLINATION":53.0543,"RA_OF_ASC_NODE":84.3165,"ARG_OF_PERICENTER":287.8635,"MEAN_ANOMALY":312.3424,"EPHEMERIS_TYPE":0,"CLASSIFICATION_TYPE":"U","NORAD_CAT_ID":57671,"ELEMENT_SET_NO":999,"REV_AT_EPOCH":476,"BSTAR":0.0021597,"MEAN_MOTION_DOT":0.00131658,"MEAN_MOTION_DDOT":0}]
