STARLINK-30243          
1 57648U 23122S   23258.58334491 -.02098661  00000+0 -78700-1 0  9993
2 57648  43.0003 339.0407 0001039 259.9760 316.0401 15.29997733  5936
STARLINK-30293          
1 57649U 23122T   23258.58334491 -.02089130  00000+0 -82160-1 0  9990
2 57649  43.0003 339.0909 0000916 250.7106 304.1997 15.28451477  5937
STARLINK-30299          
1 57650U 23122U   23258.58334491 -.02082197  00000+0 -84134-1 0  9991
2 57650  43.0006 339.1313 0000945 234.5306 303.9552 15.27561842  5926
STARLINK-30294          
1 57651U 23122V   23258.58334491 -.02089319  00000+0 -65887-1 0  9999
2 57651  43.0001 338.9305 0001422 277.8482 343.8477 15.35433267  5888
STARLINK-30276          
1 57652U 23122W   23258.58334491 -.02092710  00000+0 -81169-1 0  9990
2 57652  43.0005 339.0717 0000597 252.3976 310.3765 15.28906998  5922
STARLINK-30289          
1 57653U 23122X   23258.58334491 -.02618131  00000+0 -62453-1 0  9997
2 57653  43.0003 338.3320 0000894 256.2653 251.6380 15.44631027  5935
GAOFEN-12 04            
1 57654U 23123A   23258.73350180  .00002089  00000+0  27962-3 0  9992
2 57654  97.9040 174.9040 0002838  68.5033 291.6482 14.80514782  3857
CZ-4C R/B               
1 57655U 23123B   23258.54615619  .00006663  00000+0  35804-3 0  9999
2 57655  97.8847 175.7343 0098462 329.0178  30.5265 15.11114838  3896
STARLINK-30267          
1 57663U 23124A   23258.58334491  .00036822  00000+0  80487-3 0  9996
2 57663  53.0540  84.4380 0000812 119.4781  60.1313 15.43839317  4928
STARLINK-30302          
1 57664U 23124B   23258.58334491 -.02108640  00000+0 -53152-1 0  9996
2 57664  53.0541  84.4364 0001241  65.2190 115.2554 15.43021532  5068
STARLINK-30298          
1 57665U 23124C   23258.58334491 -.02116910  00000+0 -54415-1 0  9999
2 57665  53.0540  84.4387 0001882  93.7577  85.6008 15.42453676  5071
STARLINK-30301          
1 57666U 23124D   23257.14835597  .00286863  00000+0  12263-2 0  9991
2 57666  53.0492  89.2954 0000701   1.6869 358.4155 15.83849094  4837
STARLINK-30275          
1 57667U 23124E   23258.58334491 -.02147870  00000+0 -53240-1 0  9995
2 57667  53.0540  84.4344 0001263 121.7764  60.1346 15.43584894  4710
STARLINK-30278          
1 57668U 23124F   23258.58334491 -.02086390  00000+0 -50575-1 0  9993
2 57668  53.0541  84.4322 0001237 127.4271  55.0905 15.44126873  5068
STARLINK-30271          
1 57669U 23124G   23258.58334491 -.00693410  00000+0 -16072-1 0  9993
2 57669  53.0539  84.4303 0003742 139.0145  44.6699 15.44110337  5069
STARLINK-30322          
1 57670U 23124H   23258.58334491 -.01524291  00000+0 -36098-1 0  9996
2 57670  53.0541  84.4318 0002092 112.6858  70.3895 15.44286061  4707
STARLINK-30296          
1 57671U 23124J   23258.58334491  .00131658  00000+0  21597-2 0  9994
2 57671  53.0543  84.3165 0001504 287.8635 312.3424 15.51517782  4762
